[{"OBJECT_NAME":"TOMORROW-R2","OBJECT_ID":"2023-084AG","EPOCH":"2026-03-09T21:19:23.098656","MEAN_MOTION":15.71879583,"ECCENTRICITY":0.00051142,"INCLINATION":97.5895,"RA_OF_ASC_NODE":222.1734,"ARG_OF_PERICENTER":248.1295,"MEAN_ANOMALY":111.9424,"EPHEMERIS_TYPE":0,"CLASSIFICATION_TYPE":"U","NORAD_CAT_ID":56962,"ELEMENT_SET_NO":999,"REV_AT_EPOCH":15332,"BSTAR":0.00081619373,"MEAN_MOTION_DOT":0.00107013,"MEAN_MOTION_DDOT":0},{"OBJECT_NAME":"STARLINK-11276 [DTC]","OBJECT_ID":"2024-175B","EPOCH":"2026-03-09T23:41:30.960960","MEAN_MOTION":15.69684035,"ECCENTRICITY":0.00016978,"INCLINATION":53.1599,"RA_OF_ASC_NODE":54.7702,"ARG_OF_PERICENTER":88.5732,"MEAN_ANOMALY":271.5481,"EPHEMERIS_TYPE":0,"CLASSIFICATION_TYPE":"U","NORAD_CAT_ID":61244,"ELEMENT_SET_NO":999,"REV_AT_EPOCH":8341,"BSTAR":3.8632361e-5,"MEAN_MOTION_DOT":4.088e-5,"MEAN_MOTION_DDOT":0}]
